NUSAT-1 (FRESCO)        
1 41557U 16033B   22341.95698402  .00020578  00000+0  51432-3 0  9999
2 41557  97.3902  80.5385 0010780 113.5092 336.5410 15.40108116364035
BEESAT-4                
1 41619U 16040W   22341.35132452  .00020504  00000+0  56722-3 0  9994
2 41619  97.1939  27.7383 0007127 204.8311 155.2592 15.37011596347222
CAS-2T & KS-1Q          
1 41847U 16066G   22341.78976765  .00000963  00000+0  15232-3 0  9993
2 41847  98.5313  46.1194 0363424  51.2997 312.0105 14.38940506319279
NAYIF-1 (EO-88)         
1 42017U 17008BX  22341.15497481  .00025191  00000+0  59547-3 0  9991
2 42017  97.2486  45.2862 0003767   5.3938 354.7349 15.41809364323611
ZHUHAI-1 02 (CAS-4B)    
1 42759U 17034B   22341.80116709  .00004393  00000+0  25380-3 0  9995
2 42759  43.0163  96.2686 0011472 303.3477 192.0328 15.13410338302600
ZHUHAI-1 01 (CAS-4A)    
1 42761U 17034D   22341.82819188  .00004613  00000+0  26514-3 0  9996
2 42761  43.0166  94.7786 0011798 306.2514 195.8786 15.13502234302612
MAX VALIER SAT          
1 42778U 17036P   22341.55726361  .00012075  00000+0  41292-3 0  9997
2 42778  97.1844  16.8447 0011769  72.9025 287.3505 15.30338867303349
RADFXSAT (FOX-1B)       
1 43017U 17073E   22341.35058352  .00006683  00000+0  49319-3 0  9997
2 43017  97.6537 228.3968 0243652 341.3774  17.8638 14.82812497272722
FOX-1D (AO-92)          
1 43137U 18004AC  22341.15626033  .00013934  00000+0  43266-3 0  9992
2 43137  97.3539  55.0199 0008410 106.1518 254.0650 15.33450041272773
DIWATA-2B               
1 43678U 18084H   22341.84299669  .00000796  00000+0  83192-4 0  9992
2 43678  97.9941 117.4441 0011208  74.8673 285.3772 14.92527918223715
ES'HAIL 2               
1 43700U 18090A   22341.81855022  .00000159  00000+0  00000+0 0  9998
2 43700   0.0187  21.4006 0001713 264.6498 110.9788  1.00272858 14761
FOX-1CLIFF (AO-95)      
1 43770U 18099N   22341.59471367  .00004193  00000+0  36477-3 0  9998
2 43770  97.6017  43.3508 0015308  59.6342 300.6391 14.97396129218916
ITASAT 1                
1 43786U 18099AE  22341.64437132  .00002911  00000+0  25471-3 0  9991
2 43786  97.6037  44.4022 0015293  51.0570 309.2013 14.97408006218969
JY1SAT (JO-97)          
1 43803U 18099AX  22341.59413954  .00004441  00000+0  37877-3 0  9994
2 43803  97.6006  44.1778 0015568  52.1120 308.1508 14.98127871218986
UWE-4                   
1 43880U 18111E   22341.53239618  .00004133  00000+0  34285-3 0  9999
2 43880  97.6563 244.8026 0012050 100.7166 259.5415 14.99284230215625
NEXUS (FO-99)           
1 43937U 19003F   22341.81661049  .00023960  00000+0  68702-3 0  9991
2 43937  97.1123   8.7724 0016183 250.4863 109.4634 15.35752119216539
PSAT2 (NO-104)          
1 44354U 19036R   22341.47755443  .00128832 -20536-5  61927-3 0  9994
2 44354  28.5207  38.4807 0142492 154.5105 206.2610 15.67613129191570
JAISAT-1                
1 44419U 19038F   22341.65254050  .00011841  00000+0  54022-3 0  9992
2 44419  97.6568 313.7365 0015539 251.2499 108.7049 15.20674871189343
DUCHIFAT-3              
1 44854U 19089C   22341.80879747  .00004001  00000+0  30138-3 0  9996
2 44854  36.9642 151.6735 0006685 203.4651 282.0375 15.02491345164003
CAS-6 (TIANQIN 1)       
1 44881U 19093C   22341.84881035  .00000603  00000+0  82704-4 0  9999
2 44881  97.8809  58.4691 0014732 347.4227  12.6614 14.81957454160451
RS-44 & BREEZE-KM R/B   
1 44909U 19096E   22341.67660297  .00000009  00000+0  12791-5 0  9999
2 44909  82.5200 115.2051 0216419 274.7069  82.9348 12.79716937137667
ORBITAL FACTORY 2 (OF-2)
1 45113U 19071C   22341.22548737  .00055348  00000+0  70873-3 0  9994
2 45113  51.6347 282.6519 0011630  92.9888 267.2436 15.58563630160188
HUSKYSAT-1 (HO-107)     
1 45119U 19071J   22341.22137070  .00045230  00000+0  64922-3 0  9991
2 45119  51.6352 284.8383 0011312  88.4050 271.8237 15.55591227160147
BY70-2                  
1 45857U 20042B   22341.87227995  .00008381  00000+0  10516-2 0  9992
2 45857  97.9444  57.2267 0008945 268.5939  91.4286 14.82389839131128
SALSAT                  
1 46495U 20068K   22341.63939753  .00003301  00000+0  23371-3 0  9996
2 46495  97.7497 283.2351 0017880  54.1228 306.1655 15.05420111120237
BY70-3                  
1 46839U 20079N   22341.82050148  .00047657  00000+0  76820-3 0  9992
2 46839  97.1813  52.5132 0004670  73.6380  58.9066 15.52779494117032
RADFXSAT-2 (AO-109)     
1 47311U 21002C   22341.42780327  .00011526  00000+0  40977-3 0  9990
2 47311  60.6853  69.6390 0038444  79.5148 281.0270 15.28774719104877
UVSQ-SAT                
1 47438U 21006AB  22341.13474178  .00006829  00000+0  33824-3 0  9999
2 47438  97.4161  36.6239 0012224  41.4521 318.7638 15.18025078103459
DIY-1 (ARDUIQUBE)       
1 47963U 21022AH  22341.83366473  .00041812  00000+0  18949-2 0  9996
2 47963  97.5177 241.7394 0011645 255.8982 104.0959 15.20663321 93226
XW-3 (CAS-9)            
1 50466U 21131B   22341.92115560  .00000353  00000+0  12998-3 0  9992
2 50466  98.5691  58.9860 0004216   6.0848 354.0389 14.38588569 49851
TEVEL-3                 
1 50988U 22002E   22341.87540705  .00009301  00000+0  47100-3 0  9991
2 50988  97.4632  46.0546 0009354 173.7734 278.3103 15.17174268 49684
TEVEL-8                 
1 50989U 22002F   22341.82092390  .00009363  00000+0  47489-3 0  9997
2 50989  97.4647  46.0366 0009302 173.0859 280.3634 15.17117626 49671
TEVEL-5                 
1 50998U 22002Q   22341.83862464  .00009987  00000+0  49738-3 0  9996
2 50998  97.4618  46.2226 0010748 170.4699 282.1706 15.17726793 49698
TEVEL-6                 
1 50999U 22002R   22341.83761325  .00009974  00000+0  49664-3 0  9995
2 50999  97.4615  46.2183 0010790 170.1350 282.0159 15.17733014 49691
TEVEL-1                 
1 51013U 22002AF  22341.81506622  .00009324  00000+0  47258-3 0  9994
2 51013  97.4627  45.9617 0009322 172.9136 280.9907 15.17143580 49670
TEVEL-7                 
1 51062U 22002CG  22341.82302041  .00009441  00000+0  47883-3 0  9992
2 51062  97.4638  46.0209 0009416 172.0967 281.5980 15.17117138 49670
TEVEL-4                 
1 51063U 22002CH  22341.82468910  .00009408  00000+0  47739-3 0  9994
2 51063  97.4634  46.0148 0009338 172.4424 280.7274 15.17099240 49674
TEVEL-2                 
1 51069U 22002CP  22341.87644751  .00009311  00000+0  47158-3 0  9992
2 51069  97.4628  46.0352 0009228 173.7390 274.4139 15.17169636 49682
GREENCUBE               
1 53106U 22080B   22340.05508021 -.00000003  00000+0  00000+0 0  9991
2 53106  70.1737  26.8203 0008955 228.4776 131.5115  6.42557513  9347
YUZGU 9 (RS3S)          
1 53308U 98067TT  22341.85584671  .00162883  00000+0  13175-2 0  9991
2 53308  51.6337 188.5060 0008100 181.8197 178.2772 15.69738404 21765
YUZGU 7 (RS1S)          
1 53309U 98067TU  22341.76933203  .00162262  00000+0  12747-2 0  9996
2 53309  51.6327 188.6707 0008559 185.2857 174.8051 15.70438266 21704
YUZGU 11 (RS5S)         
1 53310U 98067TV  22341.85468306  .00164026  00000+0  13260-2 0  9996
2 53310  51.6339 188.4975 0008318 183.6148 176.4791 15.69745890 21747
YUZGU 12 (RS6S)         
1 53311U 98067TW  22341.87252707  .00179653  00000+0  13598-2 0  9991
2 53311  51.6326 187.8578 0008183 182.5975 177.4982 15.71272798 21773
TSIOLKOVSKY-RYAZAN 1 (*)
1 53312U 98067TX  22341.77296044  .00160406  00000+0  12778-2 0  9998
2 53312  51.6336 188.7026 0008658 185.5037 174.5866 15.70109010 21697
TSIOLKOVSKY-RYAZAN 2 (*)
1 53313U 98067TY  22341.76800600  .00155697  00000+0  12338-2 0  9995
2 53313  51.6337 188.6708 0008252 186.8277 173.2609 15.70255497 21743
YUZGU 10 (RS4S)         
1 53321U 98067TZ  22341.84547586  .00162140  00000+0  12912-2 0  9993
2 53321  51.6337 188.4357 0008298 183.3396 176.7547 15.70114590 21752
RS29S (SXC3-2110 CYCLO*)
1 53373U 22096D   22341.80222036  .00013495  00000+0  50603-3 0  9993
2 53373  97.4287 242.5074 0003307  94.5563 354.3342 15.27359425 18375
RS32S (SXC3-212 MONITO*)
1 53374U 22096E   22341.79402222  .00012478  00000+0  46748-3 0  9994
2 53374  97.4274 242.5112 0003484  87.9262 359.9461 15.27406106 18375
RS34S (SXC3-218 KUZBAS*)
1 53375U 22096F   22341.86901763  .00011162  00000+0  42369-3 0  9991
2 53375  97.4283 242.5583 0003376  88.2831 338.2985 15.27001706 18383
RS23S (SXC3-21 UTMN)    
1 53376U 22096G   22341.80397207  .00011458  00000+0  43387-3 0  9997
2 53376  97.4279 242.5024 0003399  83.5120   3.7864 15.27075618 18375
RS28S (SXC3-214 MIET-A*)
1 53377U 22096H   22341.80352691  .00010516  00000+0  39932-3 0  9991
2 53377  97.4288 242.5056 0003528  87.8168 359.4907 15.27005437 18375
RS26S (KAI-1)           
1 53378U 22096J   22341.87049891  .00009666  00000+0  36953-3 0  9998
2 53378  97.4290 242.5570 0003494  81.3537 343.0616 15.26803809 18386
RS19S (SXC3-219 ISOI)   
1 53381U 22096M   22341.89240830  .00010534  00000+0  39375-3 0  9997
2 53381  97.4281 242.6757 0005682  38.5715  20.0978 15.27519425 18394
RS21S (CUBESX-HSE-2)    
1 53383U 22096P   22341.82619544  .00011518  00000+0  42941-3 0  9990
2 53383  97.4286 242.6203 0005950  39.4272  33.3684 15.27578623 18388
RS30S (SXC3-217 SIREN)  
1 53384U 22096Q   22341.82984212  .00010198  00000+0  38256-3 0  9995
2 53384  97.4283 242.6140 0005791  39.0813  34.4055 15.27407944 18387
RS20S (GEOSCAN-EDELVEIS)
1 53385U 22096R   22341.79558957  .00014223  00000+0  51740-3 0  9991
2 53385  97.4271 242.6622 0006221  38.6334  48.1151 15.28335136 18419
RS33S (SXC3-215 VIZARD) 
1 53386U 22096S   22341.88492170  .00016731  00000+0  59294-3 0  9994
2 53386  97.4277 242.8370 0007184  35.6909  26.6622 15.29148984 18421
